[{"OBJECT_NAME":"STARLINK-2338","OBJECT_ID":"2021-018G","EPOCH":"2026-03-09T17:13:02.131392","MEAN_MOTION":15.06405037,"ECCENTRICITY":0.00014277,"INCLINATION":53.0568,"RA_OF_ASC_NODE":231.4941,"ARG_OF_PERICENTER":85.5695,"MEAN_ANOMALY":274.5457,"EPHEMERIS_TYPE":0,"CLASSIFICATION_TYPE":"U","NORAD_CAT_ID":47793,"ELEMENT_SET_NO":999,"REV_AT_EPOCH":27687,"BSTAR":-2.4795202e-5,"MEAN_MOTION_DOT":-6.51e-6,"MEAN_MOTION_DDOT":0},{"OBJECT_NAME":"KUIPER-00094","OBJECT_ID":"2025-151Z","EPOCH":"2026-03-09T21:52:26.217120","MEAN_MOTION":15.04318495,"ECCENTRICITY":0.00055168,"INCLINATION":51.8894,"RA_OF_ASC_NODE":261.3496,"ARG_OF_PERICENTER":288.9664,"MEAN_ANOMALY":71.071,"EPHEMERIS_TYPE":0,"CLASSIFICATION_TYPE":"U","NORAD_CAT_ID":64839,"ELEMENT_SET_NO":999,"REV_AT_EPOCH":3587,"BSTAR":0.00056295714,"MEAN_MOTION_DOT":7.667e-5,"MEAN_MOTION_DDOT":0}]
